$$SOE
2459580.500000000, A.D. 2022-Jan-01 00:00:00.0000, 2.492376005287456E+08, -5.265887308985759E+06, -1.038697384296275E+08,
2459587.500000000, A.D. 2022-Jan-08 00:00:00.0000, 2.488203199423967E+08, 8.275965285067014E+06, -1.061618637280020E+08,
2459594.500000000, A.D. 2022-Jan-15 00:00:00.0000, 2.477939724858732E+08, 2.179752247183107E+07, -1.081940739762605E+08,
2459601.500000000, A.D. 2022-Jan-22 00:00:00.0000, 2.461651747239300E+08, 3.526604493565990E+07, -1.099631871976303E+08,
2459608.500000000, A.D. 2022-Jan-29 00:00:00.0000, 2.439421284476901E+08, 4.864939537721296E+07, -1.114667972330502E+08,
2459615.500000000, A.D. 2022-Feb-05 00:00:00.0000, 2.411345477938818E+08, 6.191613565902953E+07, -1.127032616637644E+08,
2459622.500000000, A.D. 2022-Feb-12 00:00:00.0000, 2.377535839011199E+08, 7.503561499409653E+07, -1.136716866358024E+08,
2459629.500000000, A.D. 2022-Feb-19 00:00:00.0000, 2.338117466520016E+08, 8.797805132477567E+07, -1.143719085951741E+08,
2459636.500000000, A.D. 2022-Feb-26 00:00:00.0000, 2.293228230485113E+08, 1.007146050563678E+08, -1.148044732131908E+08,
2459643.500000000, A.D. 2022-Mar-05 00:00:00.0000, 2.243017932062096E+08, 1.132174445155765E+08, -1.149706119128330E+08,
2459650.500000000, A.D. 2022-Mar-12 00:00:00.0000, 2.187647449715838E+08, 1.254598031482008E+08, -1.148722163660764E+08,
2459657.500000000, A.D. 2022-Mar-19 00:00:00.0000, 2.127287879651992E+08, 1.374160286479458E+08, -1.145118113041808E+08,
2459664.500000000, A.D. 2022-Mar-26 00:00:00.0000, 2.062119677479021E+08, 1.490616242480051E+08, -1.138925259707425E+08,
2459671.500000000, A.D. 2022-Apr-02 00:00:00.0000, 1.992331807920450E+08, 1.603732824208825E+08, -1.130180645419145E+08,
2459678.500000000, A.D. 2022-Apr-09 00:00:00.0000, 1.918120910821524E+08, 1.713289113457189E+08, -1.118926758367183E+08,
2459685.500000000, A.D. 2022-Apr-16 00:00:00.0000, 1.839690491925400E+08, 1.819076551889009E+08, -1.105211225755361E+08,
2459692.500000000, A.D. 2022-Apr-23 00:00:00.0000, 1.757250129903682E+08, 1.920899096984254E+08, -1.089086502280539E+08,
2459699.500000000, A.D. 2022-Apr-30 00:00:00.0000, 1.671014684395213E+08, 2.018573313227259E+08, -1.070609556884978E+08,
2459706.500000000, A.D. 2022-May-07 00:00:00.0000, 1.581203538727880E+08, 2.111928383569154E+08, -1.049841564432307E+08,
2459713.500000000, A.D. 2022-May-14 00:00:00.0000, 1.488039893675838E+08, 2.200806076175892E+08, -1.026847602976176E+08,
2459720.500000000, A.D. 2022-May-21 00:00:00.0000, 1.391750093723818E+08, 2.285060678699436E+08, -1.001696355699710E+08,
2459727.500000000, A.D. 2022-May-28 00:00:00.0000, 1.292562982341437E+08, 2.364558895136345E+08, -9.744598192562133E+07,
2459734.500000000, A.D. 2022-Jun-04 00:00:00.0000, 1.190709289887379E+08, 2.439179706686472E+08, -9.452130202092180E+07,
2459741.500000000, A.D. 2022-Jun-11 00:00:00.0000, 1.086421056017956E+08, 2.508814201013856E+08, -9.140337406828570E+07,
2459748.500000000, A.D. 2022-Jun-18 00:00:00.0000, 9.799310870329110E+07, 2.573365374232957E+08, -8.810022540311131E+07,
2459755.500000000, A.D. 2022-Jun-25 00:00:00.0000, 8.714724481597777E+07, 2.632747909265251E+08, -8.462010711835282E+07,
2459762.500000000, A.D. 2022-Jul-02 00:00:00.0000, 7.612779915252897E+07, 2.686887933658093E+08, -8.097146982848850E+07,
2459769.500000000, A.D. 2022-Jul-09 00:00:00.0000, 6.495799228677255E+07, 2.735722762164294E+08, -7.716294061473486E+07,
2459776.500000000, A.D. 2022-Jul-16 00:00:00.0000, 5.366094054146573E+07, 2.779200638229386E+08, -7.320330107832836E+07,
2459783.500000000, A.D. 2022-Jul-23 00:00:00.0000, 4.225961778213229E+07, 2.817280478142436E+08, -6.910146629862592E+07,
2459790.500000000, A.D. 2022-Jul-30 00:00:00.0000, 3.077681856349907E+07, 2.849931586930018E+08, -6.486646496232685E+07,
2459797.500000000, A.D. 2022-Aug-06 00:00:00.0000, 1.923512607926556E+07, 2.877133355051301E+08, -6.050742092673870E+07,
2459804.500000000, A.D. 2022-Aug-13 00:00:00.0000, 7.656883955630206E+06, 2.898874965650514E+08, -5.603353589068124E+07,
2459811.500000000, A.D. 2022-Aug-20 00:00:00.0000, -3.935829837750912E+06, 2.915155109061219E+08, -5.145407302430513E+07,
2459818.500000000, A.D. 2022-Aug-27 00:00:00.0000, -1.552122707193798E+07, 2.925981698862208E+08, -4.677834157830925E+07,
2459825.500000000, A.D. 2022-Sep-03 00:00:00.0000, -2.707783127580246E+07, 2.931371589933072E+08, -4.201568246841514E+07,
2459832.500000000, A.D. 2022-Sep-10 00:00:00.0000, -3.858449776941011E+07, 2.931350300252383E+08, -3.717545480874018E+07,
2459839.500000000, A.D. 2022-Sep-17 00:00:00.0000, -5.002043184192667E+07, 2.925951737728170E+08, -3.226702335739383E+07,
2459846.500000000, A.D. 2022-Sep-24 00:00:00.0000, -6.136520516420623E+07, 2.915217932572071E+08, -2.729974683438888E+07,
2459853.500000000, A.D. 2022-Oct-01 00:00:00.0000, -7.259877034734602E+07, 2.899198775754442E+08, -2.228296707995340E+07,
2459860.500000000, A.D. 2022-Oct-08 00:00:00.0000, -8.370147339365965E+07, 2.877951769341878E+08, -1.722599899095525E+07,
2459867.500000000, A.D. 2022-Oct-15 00:00:00.0000, -9.465406512540103E+07, 2.851541801210076E+08, -1.213812099687059E+07,
2459874.500000000, A.D. 2022-Oct-22 00:00:00.0000, -1.054377139131968E+08, 2.820040927693161E+08, -7.028565958515584E+06,
2459881.500000000, A.D. 2022-Oct-29 00:00:00.0000, -1.160340173380944E+08, 2.783528138312277E+08, -1.906512873164356E+06,
2459888.500000000, A.D. 2022-Nov-05 00:00:00.0000, -1.264250108343140E+08, 2.742089130061031E+08, 3.218920699067101E+06,
2459895.500000000, A.D. 2022-Nov-12 00:00:00.0000, -1.365931754099243E+08, 2.695816104104793E+08, 8.338685821128443E+06,
2459902.500000000, A.D. 2022-Nov-19 00:00:00.0000, -1.465214452806987E+08, 2.644807575315984E+08, 1.344380901727115E+07,
2459909.500000000, A.D. 2022-Nov-26 00:00:00.0000, -1.561932152695336E+08, 2.589168190497414E+08, 1.852539875867891E+07,
2459916.500000000, A.D. 2022-Dec-03 00:00:00.0000, -1.655923479163562E+08, 2.529008554955712E+08, 2.357465163023163E+07,
2459923.500000000, A.D. 2022-Dec-10 00:00:00.0000, -1.747031803581584E+08, 2.464445067334023E+08, 2.858285822440167E+07,
2459930.500000000, A.D. 2022-Dec-17 00:00:00.0000, -1.835105310538425E+08, 2.395599762115636E+08, 3.354140880552907E+07,
2459937.500000000, A.D. 2022-Dec-24 00:00:00.0000, -1.919997063383994E+08, 2.322600158742158E+08, 3.844179877556619E+07,
2459944.500000000, A.D. 2022-Dec-31 00:00:00.0000, -2.001565065374460E+08, 2.245579117964751E+08, 4.327563396275561E+07,
2459951.500000000, A.D. 2023-Jan-07 00:00:00.0000, -2.079672316043270E+08, 2.164674714541428E+08, 4.803463584532034E+07,
2459958.500000000, A.D. 2023-Jan-14 00:00:00.0000, -2.154186883313328E+08, 2.080030130729174E+08, 5.271064697634669E+07,
2459965.500000000, A.D. 2023-Jan-21 00:00:00.0000, -2.224981998553663E+08, 1.991793538360076E+08, 5.729563645571303E+07,
2459972.500000000, A.D. 2023-Jan-28 00:00:00.0000, -2.291936138430895E+08, 1.900117966904996E+08, 6.178170513793526E+07,
2459979.500000000, A.D. 2023-Feb-04 00:00:00.0000, -2.354933096223806E+08, 1.805161187011596E+08, 6.616109087991686E+07,
2459986.500000000, A.D. 2023-Feb-11 00:00:00.0000, -2.413862061186788E+08, 1.707085606917938E+08, 7.042617401545960E+07,
2459993.500000000, A.D. 2023-Feb-18 00:00:00.0000, -2.468617707056503E+08, 1.606058172797413E+08, 7.456948302743998E+07,
2460000.500000000, A.D. 2023-Feb-25 00:00:00.0000, -2.519100287493131E+08, 1.502250270551501E+08, 7.858370040711974E+07,
2460007.500000000, A.D. 2023-Mar-04 00:00:00.0000, -2.565215737900606E+08, 1.395837628308491E+08, 8.246166871987554E+07,
2460014.500000000, A.D. 2023-Mar-11 00:00:00.0000, -2.606875783824495E+08, 1.287000218695027E+08, 8.619639690615809E+07,
2460021.500000000, A.D. 2023-Mar-18 00:00:00.0000, -2.643998055901456E+08, 1.175922159454478E+08, 8.978106684504381E+07,
2460028.500000000, A.D. 2023-Mar-25 00:00:00.0000, -2.676506209681467E+08, 1.062791611001893E+08, 9.320904019474404E+07,
2460035.500000000, A.D. 2023-Apr-01 00:00:00.0000, -2.704330046323707E+08, 9.478006738728224E+07, 9.647386553750549E+07,
2460042.500000000, A.D. 2023-Apr-08 00:00:00.0000, -2.727405640479743E+08, 8.311452972677799E+07, 9.956928601538244E+07,
2460049.500000000, A.D. 2023-Apr-15 00:00:00.0000, -2.745675498874136E+08, 7.130251865144444E+07, 1.024892476094182E+08,
2460056.500000000, A.D. 2023-Apr-22 00:00:00.0000, -2.759088731597114E+08, 5.936436778145181E+07, 1.052279076766699E+08,
2460063.500000000, A.D. 2023-Apr-29 00:00:00.0000, -2.767601208667595E+08, 4.732076016729940E+07, 1.077796437004422E+08,
2460070.500000000, A.D. 2023-May-06 00:00:00.0000, -2.771175719263866E+08, 3.519271515518896E+07, 1.101390625739645E+08,
2460077.500000000, A.D. 2023-May-13 00:00:00.0000, -2.769782143219362E+08, 2.300157475143135E+07, 1.123010104489788E+08,
2460084.500000000, A.D. 2023-May-20 00:00:00.0000, -2.763397632144715E+08, 1.076898886848381E+07, 1.142605830967103E+08,
2460091.500000000, A.D. 2023-May-27 00:00:00.0000, -2.752006797768462E+08, -1.483100714002587E+06, 1.160131367581297E+08,
2460098.500000000, A.D. 2023-Jun-03 00:00:00.0000, -2.735601906385336E+08, -1.373247780002564E+07, 1.175542994752111E+08,
2460105.500000000, A.D. 2023-Jun-10 00:00:00.0000, -2.714183078621569E+08, -2.595667081270746E+07, 1.188799829017991E+08,
2460112.500000000, A.D. 2023-Jun-17 00:00:00.0000, -2.687758492997844E+08, -3.813297362869820E+07, 1.199863945875789E+08,
2460119.500000000, A.D. 2023-Jun-24 00:00:00.0000, -2.656344589299325E+08, -5.023846830293153E+07, 1.208700507118185E+08,
2460126.500000000, A.D. 2023-Jul-01 00:00:00.0000, -2.619966268224441E+08, -6.225004900023057E+07, 1.215277893006277E+08,
2460133.500000000, A.D. 2023-Jul-08 00:00:00.0000, -2.578657102855043E+08, -7.414444645929115E+07, 1.219567841251316E+08,
2460140.500000000, A.D. 2023-Jul-15 00:00:00.0000, -2.532459573370317E+08, -8.589825597144809E+07, 1.221545591360769E+08,
2460147.500000000, A.D. 2023-Jul-22 00:00:00.0000, -2.481425288320128E+08, -9.748797005944575E+07, 1.221190029937840E+08,
$$EOE